IRIDIUM 26              
1 24903U 97043A   25067.85066172  .00000672  00000+0  22002-3 0  9999
2 24903  86.4015 152.7590 0002376  93.1188 267.0281 14.37014689442808
IRIDIUM 22              
1 24907U 97043E   25068.18590250  .00000622  00000+0  20801-3 0  9999
2 24907  86.4024 156.0665 0002148  95.3132 264.8310 14.35843702442411
DUMMY MASS 1            
1 24925U 97048A   25067.80803946  .00000918  00000+0  99729-4 0  9995
2 24925  86.3415 181.7011 0008318 130.0499 230.1456 14.86843173490218
DUMMY MASS 2            
1 24926U 97048B   25068.35930705  .00001034  00000+0  11351-3 0  9995
2 24926  86.3414 183.0336 0008826 138.9321 221.2569 14.86597609490315
IRIDIUM 29              
1 24944U 97051A   25068.38302841  .00000882  00000+0  29528-3 0  9991
2 24944  86.4030 185.7146 0001923  99.0549 261.0866 14.36327498439168
IRIDIUM 33              
1 24946U 97051C   25068.39601357  .00000677  00000+0  23179-3 0  9996
2 24946  86.3946 184.9619 0009290  54.2763 305.9296 14.34797092438441
IRIDIUM 28              
1 24948U 97051E   25067.86404955  .00000755  00000+0  24707-3 0  9999
2 24948  86.4036 183.5078 0002446  88.5260 271.6217 14.37258271439432
IRIDIUM 36              
1 24967U 97056C   25067.77280185  .00000961  00000+0  31504-3 0  9994
2 24967  86.3988 215.1290 0001999  87.0604 273.0822 14.37458337437794
